{
  "norad_id": 45532,
  "name": "STARLINK-1338",
  "history": [
    {
      "epoch": "2026-03-28T21:39:10.010880Z",
      "apogee_km": 397.07632932068736,
      "perigee_km": 390.97461093510265,
      "latitude_deg": 1.2117934397189129e-05,
      "longitude_deg": -159.46238697232596,
      "height_km": 394.61476444400176,
      "semi_major_axis_km": 6772.162470127895,
      "eccentricity": 0.0004505,
      "inclination_deg": 53.0496,
      "raan_deg": 351.6453,
      "arg_perigee_deg": 84.3112,
      "mean_anomaly_deg": 275.8413,
      "mean_motion_rev_day": 15.57800034
    },
    {
      "epoch": "2026-03-28T21:39:10.011744Z",
      "apogee_km": 397.07652958608105,
      "perigee_km": 390.9744048733601,
      "latitude_deg": 9.367423929071277e-06,
      "longitude_deg": -159.46239263954874,
      "height_km": 394.61474140792643,
      "semi_major_axis_km": 6772.16246722972,
      "eccentricity": 0.00045053,
      "inclination_deg": 53.0496,
      "raan_deg": 351.6453,
      "arg_perigee_deg": 84.3112,
      "mean_anomaly_deg": 275.8413,
      "mean_motion_rev_day": 15.57800035
    },
    {
      "epoch": "2026-03-29T23:49:34.594464Z",
      "apogee_km": 396.0745161222576,
      "perigee_km": 390.53317522061207,
      "latitude_deg": 6.254748225107735e-05,
      "longitude_deg": 161.564612353285,
      "height_km": 394.18951642254524,
      "semi_major_axis_km": 6771.4408456714345,
      "eccentricity": 0.00040917,
      "inclination_deg": 53.0491,
      "raan_deg": 346.3496,
      "arg_perigee_deg": 89.8602,
      "mean_anomaly_deg": 270.2879,
      "mean_motion_rev_day": 15.5804906
    },
    {
      "epoch": "2026-03-30T16:45:34.892064Z",
      "apogee_km": 395.5105413587098,
      "perigee_km": 390.0596782234443,
      "latitude_deg": -3.7751672866471056e-05,
      "longitude_deg": -96.55943254333236,
      "height_km": 393.76881435503753,
      "semi_major_axis_km": 6770.922109791077,
      "eccentricity": 0.00040252,
      "inclination_deg": 53.0503,
      "raan_deg": 342.9223,
      "arg_perigee_deg": 91.9121,
      "mean_anomaly_deg": 268.2351,
      "mean_motion_rev_day": 15.58228112
    }
  ]
}